{
  "type": "FeatureCollection",
  "features": [
    {
      "type": "Feature",
      "properties": {
        "norad_id": 36036,
        "name": "SMOS",
        "group": "resource",
        "lat": 3.496843307847461,
        "lon": -177.23690836977374,
        "alt_km": 761.6457933231568,
        "timestamp": "2025-12-24T09:46:30.652196+00:00",
        "meta_object_name": "SMOS",
        "meta_object_id": "2009-059A",
        "meta_epoch": "2025-12-24T03:05:13.665696",
        "meta_mean_motion": 14.39751102,
        "meta_eccentricity": 0.0001058,
        "meta_inclination": 98.4381,
        "meta_ra_of_asc_node": 183.0084,
        "meta_arg_of_pericenter": 82.5241,
        "meta_mean_anomaly": 277.6067,
        "meta_ephemeris_type": 0,
        "meta_classification_type": "U",
        "meta_norad_cat_id": 36036,
        "meta_element_set_no": 999,
        "meta_rev_at_epoch": 84826,
        "meta_bstar": 0.00013575,
        "meta_mean_motion_dot": 3.82e-06,
        "meta_mean_motion_ddot": 0,
        "tle_line1": "1 36036U 09059A   25358.12863039  .00000382  00000+0  13575-3 0  9992",
        "tle_line2": "2 36036  98.4381 183.0084 0001058  82.5241 277.6067 14.39751102848269"
      },
      "geometry": {
        "type": "Point",
        "coordinates": [
          -177.23690836977374,
          3.496843307847461
        ]
      }
    },
    {
      "type": "Feature",
      "properties": {
        "norad_id": 36110,
        "name": "YAOGAN-7",
        "group": "resource",
        "lat": -17.77426949772704,
        "lon": -117.28415638405185,
        "alt_km": 644.4340139907854,
        "timestamp": "2025-12-24T09:46:30.652206+00:00",
        "meta_object_name": "YAOGAN-7",
        "meta_object_id": "2009-069A",
        "meta_epoch": "2025-12-24T03:21:21.813984",
        "meta_mean_motion": 14.77748272,
        "meta_eccentricity": 0.0023428,
        "meta_inclination": 98.0295,
        "meta_ra_of_asc_node": 239.8558,
        "meta_arg_of_pericenter": 242.419,
        "meta_mean_anomaly": 117.4641,
        "meta_ephemeris_type": 0,
        "meta_classification_type": "U",
        "meta_norad_cat_id": 36110,
        "meta_element_set_no": 999,
        "meta_rev_at_epoch": 86377,
        "meta_bstar": 9.2579e-05,
        "meta_mean_motion_dot": 6.13e-06,
        "meta_mean_motion_ddot": 0,
        "tle_line1": "1 36110U 09069A   25358.13983581  .00000613  00000+0  92579-4 0  9991",
        "tle_line2": "2 36110  98.0295 239.8558 0023428 242.4190 117.4641 14.77748272863771"
      },
      "geometry": {
        "type": "Point",
        "coordinates": [
          -117.28415638405185,
          -17.77426949772704
        ]
      }
    },
    {
      "type": "Feature",
      "properties": {
        "norad_id": 36605,
        "name": "TANDEM-X",
        "group": "resource",
        "lat": 15.848012388348897,
        "lon": -174.25569229183833,
        "alt_km": 508.8678166007421,
        "timestamp": "2025-12-24T09:46:30.652217+00:00",
        "meta_object_name": "TANDEM-X",
        "meta_object_id": "2010-030A",
        "meta_epoch": "2025-12-23T10:55:27.931296",
        "meta_mean_motion": 15.19148406,
        "meta_eccentricity": 0.00017726,
        "meta_inclination": 97.4453,
        "meta_ra_of_asc_node": 2.6785,
        "meta_arg_of_pericenter": 93.7268,
        "meta_mean_anomaly": 266.4169,
        "meta_ephemeris_type": 0,
        "meta_classification_type": "U",
        "meta_norad_cat_id": 36605,
        "meta_element_set_no": 999,
        "meta_rev_at_epoch": 85996,
        "meta_bstar": 4.175648e-05,
        "meta_mean_motion_dot": 8.1e-06,
        "meta_mean_motion_ddot": 0,
        "tle_line1": "1 36605U 10030A   25357.45518439  .00000810  00000+0  41756-4 0  9990",
        "tle_line2": "2 36605  97.4453   2.6785 0001772  93.7268 266.4169 15.19148406859964"
      },
      "geometry": {
        "type": "Point",
        "coordinates": [
          -174.25569229183833,
          15.848012388348897
        ]
      }
    },
    {
      "type": "Feature",
      "properties": {
        "norad_id": 36795,
        "name": "CARTOSAT-2B",
        "group": "resource",
        "lat": -48.93264595734318,
        "lon": 56.08869640705543,
        "alt_km": 640.4033127793791,
        "timestamp": "2025-12-24T09:46:30.652227+00:00",
        "meta_object_name": "CARTOSAT-2B",
        "meta_object_id": "2010-035A",
        "meta_epoch": "2025-12-24T03:30:09.629856",
        "meta_mean_motion": 14.78739339,
        "meta_eccentricity": 0.0012621,
        "meta_inclination": 97.7834,
        "meta_ra_of_asc_node": 46.8046,
        "meta_arg_of_pericenter": 42.8426,
        "meta_mean_anomaly": 317.3767,
        "meta_ephemeris_type": 0,
        "meta_classification_type": "U",
        "meta_norad_cat_id": 36795,
        "meta_element_set_no": 999,
        "meta_rev_at_epoch": 83398,
        "meta_bstar": 4.5909e-05,
        "meta_mean_motion_dot": 2.87e-06,
        "meta_mean_motion_ddot": 0,
        "tle_line1": "1 36795U 10035A   25358.14594479  .00000287  00000+0  45909-4 0  9992",
        "tle_line2": "2 36795  97.7834  46.8046 0012621  42.8426 317.3767 14.78739339833985"
      },
      "geometry": {
        "type": "Point",
        "coordinates": [
          56.08869640705543,
          -48.93264595734318
        ]
      }
    },
    {
      "type": "Feature",
      "properties": {
        "norad_id": 36834,
        "name": "YAOGAN-10",
        "group": "resource",
        "lat": -78.5762160780164,
        "lon": 61.635697643700226,
        "alt_km": 622.9363369624698,
        "timestamp": "2025-12-24T09:46:30.652238+00:00",
        "meta_object_name": "YAOGAN-10",
        "meta_object_id": "2010-038A",
        "meta_epoch": "2025-12-24T05:20:28.601664",
        "meta_mean_motion": 14.84649965,
        "meta_eccentricity": 0.0001368,
        "meta_inclination": 97.9128,
        "meta_ra_of_asc_node": 17.9566,
        "meta_arg_of_pericenter": 81.0935,
        "meta_mean_anomaly": 290.3757,
        "meta_ephemeris_type": 0,
        "meta_classification_type": "U",
        "meta_norad_cat_id": 36834,
        "meta_element_set_no": 999,
        "meta_rev_at_epoch": 83124,
        "meta_bstar": 0.00029076,
        "meta_mean_motion_dot": 2.405e-05,
        "meta_mean_motion_ddot": 0,
        "tle_line1": "1 36834U 10038A   25358.22255326  .00002405  00000+0  29076-3 0  9993",
        "tle_line2": "2 36834  97.9128  17.9566 0001368  81.0935 290.3757 14.84649965831247"
      },
      "geometry": {
        "type": "Point",
        "coordinates": [
          61.635697643700226,
          -78.5762160780164
        ]
      }
    },
    {
      "type": "Feature",
      "properties": {
        "norad_id": 37216,
        "name": "COSMO-SKYMED 4",
        "group": "resource",
        "lat": 79.0677455314365,
        "lon": 45.3665366879391,
        "alt_km": 614.282312129968,
        "timestamp": "2025-12-24T09:46:30.652248+00:00",
        "meta_object_name": "COSMO-SKYMED 4",
        "meta_object_id": "2010-060A",
        "meta_epoch": "2025-12-24T04:28:33.155040",
        "meta_mean_motion": 14.82156303,
        "meta_eccentricity": 0.0001339,
        "meta_inclination": 97.8802,
        "meta_ra_of_asc_node": 179.3369,
        "meta_arg_of_pericenter": 80.887,
        "meta_mean_anomaly": 279.2495,
        "meta_ephemeris_type": 0,
        "meta_classification_type": "U",
        "meta_norad_cat_id": 37216,
        "meta_element_set_no": 999,
        "meta_rev_at_epoch": 81864,
        "meta_bstar": 4.0115e-05,
        "meta_mean_motion_dot": 2.67e-06,
        "meta_mean_motion_ddot": 0,
        "tle_line1": "1 37216U 10060A   25358.18649485  .00000267  00000+0  40115-4 0  9993",
        "tle_line2": "2 37216  97.8802 179.3369 0001339  80.8870 279.2495 14.82156303818648"
      },
      "geometry": {
        "type": "Point",
        "coordinates": [
          45.3665366879391,
          79.0677455314365
        ]
      }
    },
    {
      "type": "Feature",
      "properties": {
        "norad_id": 37387,
        "name": "RESOURCESAT-2",
        "group": "resource",
        "lat": 42.78504222452832,
        "lon": 53.67631491703869,
        "alt_km": 812.8161757652879,
        "timestamp": "2025-12-24T09:46:30.652259+00:00",
        "meta_object_name": "RESOURCESAT-2",
        "meta_object_id": "2011-015A",
        "meta_epoch": "2025-12-24T02:48:54.407232",
        "meta_mean_motion": 14.21601564,
        "meta_eccentricity": 0.0005861,
        "meta_inclination": 98.7861,
        "meta_ra_of_asc_node": 61.6173,
        "meta_arg_of_pericenter": 11.5594,
        "meta_mean_anomaly": 348.5716,
        "meta_ephemeris_type": 0,
        "meta_classification_type": "U",
        "meta_norad_cat_id": 37387,
        "meta_element_set_no": 999,
        "meta_rev_at_epoch": 76130,
        "meta_bstar": 8.3136e-05,
        "meta_mean_motion_dot": 1.38e-06,
        "meta_mean_motion_ddot": 0,
        "tle_line1": "1 37387U 11015A   25358.11729638  .00000138  00000+0  83136-4 0  9992",
        "tle_line2": "2 37387  98.7861  61.6173 0005861  11.5594 348.5716 14.21601564761309"
      },
      "geometry": {
        "type": "Point",
        "coordinates": [
          53.67631491703869,
          42.78504222452832
        ]
      }
    }
  ]
}